{"type": "FeatureCollection", "features": [ {"type": "Feature", "properties": {"norad_id": 30771, "name": "FENGYUN 1C DEB", "group": "fengyun-1c-debris", "lat": -24.364010704044134, "lon": -19.81730566300002, "alt_km": 749.1125130551927, "timestamp": "2025-12-26T06:43:29.790390+00:00", "meta": {"OBJECT_NAME": "FENGYUN 1C DEB", "OBJECT_ID": "1999-025AUH", "EPOCH": "2025-12-25T20:51:24.197184", "MEAN_MOTION": 14.43376589, "ECCENTRICITY": 0.00221398, "INCLINATION": 98.9066, "RA_OF_ASC_NODE": 335.6806, "ARG_OF_PERICENTER": 260.2033, "MEAN_ANOMALY": 99.6655, "EPHEMERIS_TYPE": 0, "CLASSIFICATION_TYPE": "U", "NORAD_CAT_ID": 30771, "ELEMENT_SET_NO": 999, "REV_AT_EPOCH": 97253, "BSTAR": 0.0025623969, "MEAN_MOTION_DOT": 8.634e-05, "MEAN_MOTION_DDOT": 0}, "tle": {"line1": "1 30771U 99025AUH 25359.86903006  .00008634  00000+0  25624-2 0  9990", "line2": "2 30771  98.9066 335.6806 0022139 260.2033  99.6655 14.43376589972538"}}, "geometry": {"type": "Point", "coordinates": [-19.81730566300002, -24.364010704044134]}}, {"type": "Feature", "properties": {"norad_id": 30802, "name": "FENGYUN 1C DEB", "group": "fengyun-1c-debris", "lat": -59.98295221017093, "lon": 102.95014773093283, "alt_km": 784.0468455642931, "timestamp": "2025-12-26T06:43:29.790400+00:00", "meta": {"OBJECT_NAME": "FENGYUN 1C DEB", "OBJECT_ID": "1999-025AUL", "EPOCH": "2025-12-25T19:50:30.876000", "MEAN_MOTION": 14.32563613, "ECCENTRICITY": 0.00175123, "INCLINATION": 98.8365, "RA_OF_ASC_NODE": 86.8682, "ARG_OF_PERICENTER": 0.5523, "MEAN_ANOMALY": 121.2156, "EPHEMERIS_TYPE": 0, "CLASSIFICATION_TYPE": "U", "NORAD_CAT_ID": 30802, "ELEMENT_SET_NO": 999, "REV_AT_EPOCH": 97390, "BSTAR": 0.0017189804, "MEAN_MOTION_DOT": 4.629e-05, "MEAN_MOTION_DDOT": 0}, "tle": {"line1": "1 30802U 99025AUL 25359.82674625  .00004629  00000+0  17190-2 0  9992", "line2": "2 30802  98.8365  86.8682 0017512   0.5523 121.2156 14.32563613973903"}}, "geometry": {"type": "Point", "coordinates": [102.95014773093283, -59.98295221017093]}}, {"type": "Feature", "properties": {"norad_id": 30803, "name": "FENGYUN 1C DEB", "group": "fengyun-1c-debris", "lat": -48.578185230584104, "lon": 44.498659730345885, "alt_km": 926.4546955243177, "timestamp": "2025-12-26T06:43:29.790410+00:00", "meta": {"OBJECT_NAME": "FENGYUN 1C DEB", "OBJECT_ID": "1999-025AUM", "EPOCH": "2025-12-25T14:34:14.004192", "MEAN_MOTION": 14.11305038, "ECCENTRICITY": 0.0107621, "INCLINATION": 99.2451, "RA_OF_ASC_NODE": 33.1677, "ARG_OF_PERICENTER": 165.8855, "MEAN_ANOMALY": 326.134, "EPHEMERIS_TYPE": 0, "CLASSIFICATION_TYPE": "U", "NORAD_CAT_ID": 30803, "ELEMENT_SET_NO": 999, "REV_AT_EPOCH": 96180, "BSTAR": 0.001206, "MEAN_MOTION_DOT": 2.255e-05, "MEAN_MOTION_DDOT": 0}, "tle": {"line1": "1 30803U 99025AUM 25359.60710653  .00002255  00000+0  12060-2 0  9995", "line2": "2 30803  99.2451  33.1677 0107621 165.8855 326.1340 14.11305038961807"}}, "geometry": {"type": "Point", "coordinates": [44.498659730345885, -48.578185230584104]}}, {"type": "Feature", "properties": {"norad_id": 30804, "name": "FENGYUN 1C DEB", "group": "fengyun-1c-debris", "lat": -67.8988219101484, "lon": 89.25569955233595, "alt_km": 818.8352102384652, "timestamp": "2025-12-26T06:43:29.790421+00:00", "meta": {"OBJECT_NAME": "FENGYUN 1C DEB", "OBJECT_ID": "1999-025AUN", "EPOCH": "2025-12-25T11:19:07.624128", "MEAN_MOTION": 14.54669455, "ECCENTRICITY": 0.0185981, "INCLINATION": 98.8931, "RA_OF_ASC_NODE": 65.7163, "ARG_OF_PERICENTER": 152.0135, "MEAN_ANOMALY": 224.9978, "EPHEMERIS_TYPE": 0, "CLASSIFICATION_TYPE": "U", "NORAD_CAT_ID": 30804, "ELEMENT_SET_NO": 999, "REV_AT_EPOCH": 99662, "BSTAR": 0.00045099, "MEAN_MOTION_DOT": 2.371e-05, "MEAN_MOTION_DDOT": 0}, "tle": {"line1": "1 30804U 99025AUN 25359.47161602  .00002371  00000+0  45099-3 0  9993", "line2": "2 30804  98.8931  65.7163 0185981 152.0135 224.9978 14.54669455996624"}}, "geometry": {"type": "Point", "coordinates": [89.25569955233595, -67.8988219101484]}}, {"type": "Feature", "properties": {"norad_id": 30805, "name": "FENGYUN 1C DEB", "group": "fengyun-1c-debris", "lat": 76.40242156414253, "lon": 2.585288448244618, "alt_km": 926.2897798688173, "timestamp": "2025-12-26T06:43:29.790431+00:00", "meta": {"OBJECT_NAME": "FENGYUN 1C DEB", "OBJECT_ID": "1999-025AUP", "EPOCH": "2025-12-25T13:58:20.998272", "MEAN_MOTION": 14.02932036, "ECCENTRICITY": 0.0070701, "INCLINATION": 98.8198, "RA_OF_ASC_NODE": 41.8415, "ARG_OF_PERICENTER": 247.9444, "MEAN_ANOMALY": 268.4455, "EPHEMERIS_TYPE": 0, "CLASSIFICATION_TYPE": "U", "NORAD_CAT_ID": 30805, "ELEMENT_SET_NO": 999, "REV_AT_EPOCH": 96140, "BSTAR": 0.0010452, "MEAN_MOTION_DOT": 1.614e-05, "MEAN_MOTION_DDOT": 0}, "tle": {"line1": "1 30805U 99025AUP 25359.58218748  .00001614  00000+0  10452-2 0  9993", "line2": "2 30805  98.8198  41.8415 0070701 247.9444 268.4455 14.02932036961407"}}, "geometry": {"type": "Point", "coordinates": [2.585288448244618, 76.40242156414253]}}, {"type": "Feature", "properties": {"norad_id": 30806, "name": "FENGYUN 1C DEB", "group": "fengyun-1c-debris", "lat": -48.03248407209759, "lon": 36.20286301358018, "alt_km": 1161.8685775111135, "timestamp": "2025-12-26T06:43:29.790441+00:00", "meta": {"OBJECT_NAME": "FENGYUN 1C DEB", "OBJECT_ID": "1999-025AUQ", "EPOCH": "2025-12-24T20:45:44.138880", "MEAN_MOTION": 13.70438541, "ECCENTRICITY": 0.02678621, "INCLINATION": 99.035, "RA_OF_ASC_NODE": 24.6819, "ARG_OF_PERICENTER": 98.5447, "MEAN_ANOMALY": 76.6973, "EPHEMERIS_TYPE": 0, "CLASSIFICATION_TYPE": "U", "NORAD_CAT_ID": 30806, "ELEMENT_SET_NO": 999, "REV_AT_EPOCH": 93861, "BSTAR": 0.00071141173, "MEAN_MOTION_DOT": 7.72e-06, "MEAN_MOTION_DDOT": 0}, "tle": {"line1": "1 30806U 99025AUQ 25358.86509420  .00000772  00000+0  71141-3 0  9991", "line2": "2 30806  99.0350  24.6819 0267862  98.5447  76.6973 13.70438541938614"}}, "geometry": {"type": "Point", "coordinates": [36.20286301358018, -48.03248407209759]}}, {"type": "Feature", "properties": {"norad_id": 30809, "name": "FENGYUN 1C DEB", "group": "fengyun-1c-debris", "lat": 69.59296992160513, "lon": -65.99262697345515, "alt_km": 753.1330820101739, "timestamp": "2025-12-26T06:43:29.790452+00:00", "meta": {"OBJECT_NAME": "FENGYUN 1C DEB", "OBJECT_ID": "1999-025AUT", "EPOCH": "2025-12-23T04:17:49.751520", "MEAN_MOTION": 14.29314737, "ECCENTRICITY": 0.00521844, "INCLINATION": 98.7888, "RA_OF_ASC_NODE": 86.3085, "ARG_OF_PERICENTER": 142.2717, "MEAN_ANOMALY": 218.2142, "EPHEMERIS_TYPE": 0, "CLASSIFICATION_TYPE": "U", "NORAD_CAT_ID": 30809, "ELEMENT_SET_NO": 999, "REV_AT_EPOCH": 97236, "BSTAR": 0.0017567777, "MEAN_MOTION_DOT": 4.495e-05, "MEAN_MOTION_DDOT": 0}, "tle": {"line1": "1 30809U 99025AUT 25357.17904805  .00004495  00000+0  17568-2 0  9991", "line2": "2 30809  98.7888  86.3085 0052184 142.2717 218.2142 14.29314737972362"}}, "geometry": {"type": "Point", "coordinates": [-65.99262697345515, 69.59296992160513]}}, {"type": "Feature", "properties": {"norad_id": 30810, "name": "FENGYUN 1C DEB", "group": "fengyun-1c-debris", "lat": -5.399285128130658, "lon": 172.42795644280136, "alt_km": 761.1268539970515, "timestamp": "2025-12-26T06:43:29.790462+00:00", "meta": {"OBJECT_NAME": "FENGYUN 1C DEB", "OBJECT_ID": "1999-025AUU", "EPOCH": "2025-12-25T03:23:24.509760", "MEAN_MOTION": 14.0426397, "ECCENTRICITY": 0.0179971, "INCLINATION": 98.6603, "RA_OF_ASC_NODE": 170.516, "ARG_OF_PERICENTER": 19.8149, "MEAN_ANOMALY": 340.9894, "EPHEMERIS_TYPE": 0, "CLASSIFICATION_TYPE": "U", "NORAD_CAT_ID": 30810, "ELEMENT_SET_NO": 999, "REV_AT_EPOCH": 94557, "BSTAR": 0.0030195, "MEAN_MOTION_DOT": 5.503e-05, "MEAN_MOTION_DDOT": 0}, "tle": {"line1": "1 30810U 99025AUU 25359.14125590  .00005503  00000+0  30195-2 0  9990", "line2": "2 30810  98.6603 170.5160 0179971  19.8149 340.9894 14.04263970945575"}}, "geometry": {"type": "Point", "coordinates": [172.42795644280136, -5.399285128130658]}}, {"type": "Feature", "properties": {"norad_id": 30811, "name": "FENGYUN 1C DEB", "group": "fengyun-1c-debris", "lat": 19.514959924651325, "lon": 35.1662686384278, "alt_km": 825.4265790992604, "timestamp": "2025-12-26T06:43:29.790472+00:00", "meta": {"OBJECT_NAME": "FENGYUN 1C DEB", "OBJECT_ID": "1999-025AUV", "EPOCH": "2025-12-24T01:44:19.374144", "MEAN_MOTION": 13.61876924, "ECCENTRICITY": 0.02779162, "INCLINATION": 98.7823, "RA_OF_ASC_NODE": 36.3167, "ARG_OF_PERICENTER": 16.5271, "MEAN_ANOMALY": 344.4713, "EPHEMERIS_TYPE": 0, "CLASSIFICATION_TYPE": "U", "NORAD_CAT_ID": 30811, "ELEMENT_SET_NO": 999, "REV_AT_EPOCH": 93021, "BSTAR": 0.001582937, "MEAN_MOTION_DOT": 1.538e-05, "MEAN_MOTION_DDOT": 0}, "tle": {"line1": "1 30811U 99025AUV 25358.07244646  .00001538  00000+0  15829-2 0  9997", "line2": "2 30811  98.7823  36.3167 0277916  16.5271 344.4713 13.61876924930210"}}, "geometry": {"type": "Point", "coordinates": [35.1662686384278, 19.514959924651325]}}, {"type": "Feature", "properties": {"norad_id": 30814, "name": "FENGYUN 1C DEB", "group": "fengyun-1c-debris", "lat": -18.668496928067146, "lon": 154.87472687493042, "alt_km": 674.442137168151, "timestamp": "2025-12-26T06:43:29.790482+00:00", "meta": {"OBJECT_NAME": "FENGYUN 1C DEB", "OBJECT_ID": "1999-025AUY", "EPOCH": "2025-12-25T21:44:01.115808", "MEAN_MOTION": 14.60746579, "ECCENTRICITY": 0.00305645, "INCLINATION": 99.0831, "RA_OF_ASC_NODE": 337.5626, "ARG_OF_PERICENTER": 190.6366, "MEAN_ANOMALY": 199.1367, "EPHEMERIS_TYPE": 0, "CLASSIFICATION_TYPE": "U", "NORAD_CAT_ID": 30814, "ELEMENT_SET_NO": 999, "REV_AT_EPOCH": 97934, "BSTAR": 0.0025628323, "MEAN_MOTION_DOT": 0.00012548, "MEAN_MOTION_DDOT": 0}, "tle": {"line1": "1 30814U 99025AUY 25359.90556847  .00012548  00000+0  25628-2 0  9993", "line2": "2 30814  99.0831 337.5626 0030564 190.6366 199.1367 14.60746579979346"}}, "geometry": {"type": "Point", "coordinates": [154.87472687493042, -18.668496928067146]}}]}